#dP2020 10  6  0  0  0.00000000      97 __u+U IGS14 FIT  IAC
## 2126 172800.00000000   900.00000000 59128 0.0000000000000
+  123   C01C02C03C04C05C06C07C08C09C10C11C12C13C14C16C19C20
+        C21C22C23C24C25C26C27C28C29C30C32C33C34C35C36C37C38
+        C39C40C43C44C45C46C60E01E02E03E04E05E07E08E09E11E12
+        E13E14E15E18E19E21E24E25E26E27E30E31E33E36G01G02G03
+        G04G05G06G07G08G09G10G11G12G13G15G16G17G18G19G20G21
+        G22G23G24G25G26G27G28G29G30G31G32J01J02J03J07R01R02
+        R03R04R05R07R08R09R11R12R13R14R15R16R17R18R19R20R21
+        R22R23R24R26  0  0  0  0  0  0  0  0  0  0  0  0  0
++        13 12 13 14 13  8  8  8  8  8  8  8  7  8  8  7  7
++         7  7  8  7  7  7  7  8  7  7  8  8  8  7  7  8 13
++         9  9  9  8  8  9 14  4  4  4  4  4  4  4  4  4  4
++         4  4  4  4  4  4  4  4  4  4  4  4  5  4  3  3  3
++         3  3  3  3  3  3  3  3  3  3  3  3  3  3  3  3  3
++         3  3  3  3  3  3  3  3  3  3  3  9  8 10 13  6  5
++         5  5  5  5  5  5  5  5  6  5  5  6  5  5  6  6  5
++         6  5  5  8  0  0  0  0  0  0  0  0  0  0  0  0  0
%c M  cc GPS ccc cccc cccc cccc cccc ccccc ccccc ccccc ccccc
%c cc cc ccc ccc cccc cccc cccc cccc ccccc ccccc ccccc ccccc
%f  1.2500000  1.025000000  0.00000000000  0.000000000000000
%f  0.0000000  0.000000000  0.00000000000  0.000000000000000
%i    0    0    0    0      0      0      0      0         0
%i    0    0    0    0      0      0      0      0         0
/* INFORMATION & ANALYSIS CENTER (IAC)            FINAL DATA
/* S/V CLOCKS ARE ALIGNED TO GNSS TIME                      
/* G:C1WC2W R:C1PC2P E:C1XC5X C:C2IC6I J:C1CC2S             
/* PCV:IGS14_2118 OL/AL:FES2004  NONE     YN ORB:CoN CLK:CoN
*  2020 10 06  1  0  0.00000000
PC01 -34304.223492  24465.428343   -446.706634    -74.447507
PC02   4355.703643  41957.606477    480.204689     -7.419889
PC03 -14817.227758  39446.201745   1194.225507    798.815629
PC04 -39591.365669  14415.279417    532.793813    206.942650
PC05  21923.107384  36028.941802    399.069428    -51.784871
PC06 -25711.561813  28307.454129 -17825.415281     32.278773
PC07 -12214.377031  35922.685861 -17580.810530    -73.802376
PC08  -9596.674436  19272.417680  36345.207410   -582.281088
PC09 -11438.012620  28397.050236 -28907.815236    854.669614
PC10  -1645.916269  41543.274423  -5177.254388   -170.597234
PC11  26993.292758  -7159.637407    898.436015   -665.935146
PC12  21484.353235   5266.829018  17070.480559    542.110239
PC13   4800.139788  26667.234738  32465.917064    681.569230
PC14  16650.606042  -9032.092042 -20491.925720-106083.305491
PC16 -22214.418434  29024.782071 -21096.802546   -593.304793
PC19 -14644.150344  18525.156293  14873.933094    571.410540
PC20 -16067.627272   -654.993287  22811.497730   -854.308164
PC21   7934.986968  20245.250731 -17470.147585   -690.811971
PC22  -4706.964919  27421.497247  -1955.557741   -770.560193
PC23  -2269.816201 -20521.442794  18787.602504   -883.119736
PC24  23099.479849   9524.564210  12455.311069   -722.225776
PC25  14251.054654  -8624.476212  22392.275250   -781.084426
PC26  18750.203729  20347.684787  -3764.154284    856.182494
PC27 -13314.693431 -11644.473913 -21602.401947    410.795188
PC28   7414.337835 -17099.350675 -20770.954503   -161.769675
PC29 -23185.573112  13422.992817   7796.909367    293.417573
PC30 -25992.174334   1301.069625 -10093.864785    385.616698
PC32  -8082.515969 -20226.968501  17454.394388   -904.778400
PC33  14589.212889 -18553.521144 -14904.030482   -806.433315
PC34  26153.345637  -1620.603674   9570.205733   -838.731725
PC35  -7070.727157  17415.621752  20633.186389   -621.296494
PC36 -14626.850203   8052.958516 -22327.034934   -889.944597
PC37 -17798.393506 -21012.586681   4496.607823   -905.319824
PC38  -6913.999225  23211.475150  34524.717863    104.492547
PC39 -18297.520223  30564.683080 -22654.515562     23.416870
PC40  -6625.678621  40846.616167  -7554.969838     88.039409
PC43  23450.495657 -13157.030818  -7439.617681   -403.722989
PC44  13501.863280  11426.706950  21573.744397   -183.788069
PC45   2464.414560  20459.706923 -18811.827363    248.626587
PC46 -22979.920619  -8917.659274 -13034.434443 999999.999999
PC60   7298.381189  41505.034004   1311.249009     -0.030335
PE01 -13676.149278 -25735.604209  -5170.468193   -955.356513
PE02  13747.537317  25681.215141   5298.022589    166.765481
PE03   7346.752971  17003.218689 -23090.928105   -350.539276
PE04 -20375.141099   1130.503033  21440.801404   -621.255319
PE05 -10189.759658  25428.143860 -11211.851930   -340.278523
PE07  21622.690444 -18934.253811  -7107.110856   -445.002714
PE08  20384.258829  -1611.622594 -21410.726023   6110.708419
PE09 -21432.770914  19155.196474   7025.327548   5908.252686
PE11 -23328.103934   7630.917818  16540.264370   6017.314516
PE12 -29061.224322  -5348.949266  -1788.762771   5570.952233
PE13  23496.722527  -7503.315856 -16366.104330    404.154210
PE14   1124.403286 -23233.151676 -22659.904412  -1180.269726
PE15  29110.349071   5132.827898   1639.904777    849.708454
PE18  -3128.395273  17329.645305  15569.502936  -1289.325492
PE19  -5297.979347 -18542.120822  22455.734953     95.869607
PE21  -1050.112668 -26594.368796  12965.224894   -625.157515
PE24 -12906.183431  11513.052083 -24025.946792   -514.078479
PE25    953.058312  26534.770000 -13068.207471   -517.732555
PE26   3550.494879 -15977.793500 -24661.859080   2646.237294
PE27  12571.942482 -11996.036366  23974.582130    119.530071
PE30  18732.843135  10244.809863  20505.920119   3528.757678
PE31 -18720.579898  -9570.493863 -20820.494797   -474.626569
PE33 -17608.558492 -14742.996572 -18668.645034   -462.649221
PE36  -4072.900017  15725.832582  24746.535861    498.292500
PG01 -20776.692168 -14759.047397  -8297.085684     34.213541
PG02   1850.963355  16409.542963  21455.874702   -525.805740
PG03 -12658.015207 -18137.898993  14697.962299   -318.398803
PG04 -14411.284010  -7687.593007  20956.901650   -142.270686
PG05   1856.228443  26137.358817   3517.987887    -22.718815
PG06 -13959.893677   9221.626149  20690.124660   -331.185720
PG07 -25216.569289  -5094.096132  -7226.227853   -387.364275
PG08  -4945.965072 -14849.230978 -21409.606824    -50.445064
PG09 -21663.194929   3772.725634  14849.311961   -296.102231
PG10  12380.488859 -11910.638610 -20096.291453   -472.453512
PG11 -13737.177526 -13341.422816 -18740.078573   -144.961167
PG12  10253.564597  20539.914599  13251.548101     57.940576
PG13  -5053.086117  18018.477759 -18932.998602     51.936785
PG15   7858.297392  14412.755386 -21178.485217   -198.923118
PG16    -49.496402 -26248.339797   1605.108686   -218.493341
PG17 -21362.712373  15711.513714   1443.539673    335.768487
PG18  24702.845197   4075.550056  -8953.817146    302.324257
PG19 -18563.070540  17291.816448   7453.233342    -95.616255
PG20  16335.997319    805.422267 -21036.601373    526.499544
PG21  -5357.512955 -16383.679798 -19573.739083     54.685000
PG22 -11087.318438 -23041.928109   7665.098261   -746.719836
PG23  15241.789691   -896.738296 -21764.753027     80.500582
PG24  19099.270551  15155.827811 -11193.351410    -19.432260
PG25  15061.188128   9025.997435  19769.133720      0.917036
PG26   6495.747416 -21536.239171  13902.117264    290.503088
PG27   6756.284518 -19451.941345 -16725.810075   -411.834815
PG28 -12319.460282  13208.634396 -18947.950884    670.998473
PG29  20381.020489     13.371122  17019.562163   -209.522155
PG30 -21234.806095   3128.267375 -15728.871735   -314.676871
PG31  12629.964052 -10509.397056  20900.520169    -73.105936
PG32  20373.930216 -16877.498744   1056.520804    354.456367
PJ01 -30690.083322  26464.444906  16534.847126   -342.194929
PJ02 -19918.289617  21811.595525 -25630.495411     -4.703477
PJ03 -30618.503321  27724.843779  13510.816726     -1.708405
PJ07 -25337.941490  33692.964511    -22.137764      0.056123
PR01  -3054.196165  22442.054500 -11727.024790     68.610038
PR02   9138.311967   6196.265609 -22963.520980    448.674041
PR03  14191.046429 -11771.293080 -17566.002904     23.271161
PR04  11053.716546 -22868.454102  -2294.272630     56.965594
PR05   1836.272210 -21039.757170  14291.091321     58.789336
PR07 -14272.404833  12346.232410  17215.030900    -40.602540
PR08 -11127.327454  22844.160085   2396.922589    -54.985486
PR09 -17763.673095 -15658.370521  -9554.353407      0.753026
PR11  -1090.967594  15093.847550 -20497.280913    -40.115022
PR12  11285.568361  21412.768205  -8046.216708    169.477270
PR13  17713.629096  15765.135134   9386.476368    -44.826333
PR14  13540.957352    712.687878  21620.857620     56.276395
PR15   1726.202853 -14428.236984  20992.412934    106.999048
PR16 -12051.726684 -21165.975632   7353.008217     -6.982141
PR17  24992.673255  -4227.055768  -3073.340060    363.862380
PR18  15206.473588  -9770.441412 -17965.182098     51.760024
PR19  -1706.406133 -10250.743617 -23295.456219   -114.171647
PR20 -20581.572840  -4683.316428 -14339.679607   -423.459331
PR21 -24721.831585   4607.054025   4157.615453   -157.044665
PR22 -14276.211106   9883.743649  18707.680666    -76.239680
PR23   9878.453252   8774.153837  21813.263844    336.513458
PR24  21101.243600   4466.562031  13653.107900     15.794157
PR26 -16513.365706  -6486.899862 -18299.570355   -362.162436
EOF
